{
  "norad_id": 67772,
  "name": "KUIPER-00200",
  "history": [
    {
      "epoch": "2026-03-28T12:39:24.695424Z",
      "apogee_km": 454.0379060999039,
      "perigee_km": 451.92613396605066,
      "latitude_deg": 6.193002457430888e-05,
      "longitude_deg": 112.05061617791168,
      "height_km": 452.71117265813,
      "semi_major_axis_km": 6831.119020032977,
      "eccentricity": 0.00015457,
      "inclination_deg": 51.8814,
      "raan_deg": 127.85,
      "arg_perigee_deg": 11.582,
      "mean_anomaly_deg": 348.5203,
      "mean_motion_rev_day": 15.37676523
    },
    {
      "epoch": "2026-03-29T02:41:42.624096Z",
      "apogee_km": 454.13529582606134,
      "perigee_km": 451.72939320292244,
      "latitude_deg": -7.173890464142934e-06,
      "longitude_deg": -101.9326737193156,
      "height_km": 452.5596557262041,
      "semi_major_axis_km": 6831.069344514492,
      "eccentricity": 0.0001761,
      "inclination_deg": 51.8806,
      "raan_deg": 125.018,
      "arg_perigee_deg": 19.2309,
      "mean_anomaly_deg": 340.8744,
      "mean_motion_rev_day": 15.37693296
    }
  ]
}